{
  "type": "FeatureCollection",
  "features": [
    {
      "type": "Feature",
      "properties": {
        "norad_id": 41026,
        "name": "YAOGAN-28",
        "group": "resource",
        "lat": -58.20777254497928,
        "lon": -61.304205416543525,
        "alt_km": 505.45784852252837,
        "timestamp": "2025-12-18T23:35:48.704446+00:00",
        "meta_object_name": "YAOGAN-28",
        "meta_object_id": "2015-064A",
        "meta_epoch": "2025-12-18T14:40:34.663584",
        "meta_mean_motion": 15.24447365,
        "meta_eccentricity": 0.00125864,
        "meta_inclination": 97.2807,
        "meta_ra_of_asc_node": 130.2381,
        "meta_arg_of_pericenter": 107.3383,
        "meta_mean_anomaly": 252.9232,
        "meta_ephemeris_type": 0,
        "meta_classification_type": "U",
        "meta_norad_cat_id": 41026,
        "meta_element_set_no": 999,
        "meta_rev_at_epoch": 56314,
        "meta_bstar": 0.0002880424,
        "meta_mean_motion_dot": 7.016e-05,
        "meta_mean_motion_ddot": 0,
        "tle_line1": "1 41026U 15064A   25352.61151231  .00007016  00000+0  28804-3 0  9994",
        "tle_line2": "2 41026  97.2807 130.2381 0012586 107.3383 252.9232 15.24447365563148"
      },
      "geometry": {
        "type": "Point",
        "coordinates": [
          -61.304205416543525,
          -58.20777254497928
        ]
      }
    },
    {
      "type": "Feature",
      "properties": {
        "norad_id": 41038,
        "name": "YAOGAN-29",
        "group": "resource",
        "lat": 55.379435344664614,
        "lon": -152.03833910176297,
        "alt_km": 614.8519118758222,
        "timestamp": "2025-12-18T23:35:48.704456+00:00",
        "meta_object_name": "YAOGAN-29",
        "meta_object_id": "2015-069A",
        "meta_epoch": "2025-12-18T14:56:36.790656",
        "meta_mean_motion": 14.8288826,
        "meta_eccentricity": 3.73e-05,
        "meta_inclination": 98.0215,
        "meta_ra_of_asc_node": 15.8137,
        "meta_arg_of_pericenter": 190.7353,
        "meta_mean_anomaly": 169.3853,
        "meta_ephemeris_type": 0,
        "meta_classification_type": "U",
        "meta_norad_cat_id": 41038,
        "meta_element_set_no": 999,
        "meta_rev_at_epoch": 54386,
        "meta_bstar": 5.0388492e-05,
        "meta_mean_motion_dot": 3.54e-06,
        "meta_mean_motion_ddot": 0,
        "tle_line1": "1 41038U 15069A   25352.62264804  .00000354  00000+0  50388-4 0  9995",
        "tle_line2": "2 41038  98.0215  15.8137 0000373 190.7353 169.3853 14.82888260543867"
      },
      "geometry": {
        "type": "Point",
        "coordinates": [
          -152.03833910176297,
          55.379435344664614
        ]
      }
    },
    {
      "type": "Feature",
      "properties": {
        "norad_id": 41167,
        "name": "KENT RIDGE 1",
        "group": "resource",
        "lat": -14.933647728574826,
        "lon": 70.84027441630894,
        "alt_km": 495.7202267037619,
        "timestamp": "2025-12-18T23:35:48.704466+00:00",
        "meta_object_name": "KENT RIDGE 1",
        "meta_object_id": "2015-077B",
        "meta_epoch": "2025-12-18T16:08:28.828896",
        "meta_mean_motion": 15.21681718,
        "meta_eccentricity": 0.00085176,
        "meta_inclination": 14.978,
        "meta_ra_of_asc_node": 167.1168,
        "meta_arg_of_pericenter": 214.7551,
        "meta_mean_anomaly": 145.2215,
        "meta_ephemeris_type": 0,
        "meta_classification_type": "U",
        "meta_norad_cat_id": 41167,
        "meta_element_set_no": 999,
        "meta_rev_at_epoch": 55354,
        "meta_bstar": 0.00013864268,
        "meta_mean_motion_dot": 3.985e-05,
        "meta_mean_motion_ddot": 0,
        "tle_line1": "1 41167U 15077B   25352.67255589  .00003985  00000+0  13864-3 0  9992",
        "tle_line2": "2 41167  14.9780 167.1168 0008517 214.7551 145.2215 15.21681718553548"
      },
      "geometry": {
        "type": "Point",
        "coordinates": [
          70.84027441630894,
          -14.933647728574826
        ]
      }
    },
    {
      "type": "Feature",
      "properties": {
        "norad_id": 41194,
        "name": "GAOFEN-4",
        "group": "resource",
        "lat": 0.16846147977412532,
        "lon": -172.50341313317185,
        "alt_km": 35773.559987677676,
        "timestamp": "2025-12-18T23:35:48.704479+00:00",
        "meta_object_name": "GAOFEN-4",
        "meta_object_id": "2015-083A",
        "meta_epoch": "2025-12-18T16:24:55.283616",
        "meta_mean_motion": 1.00273625,
        "meta_eccentricity": 0.00029313,
        "meta_inclination": 0.1854,
        "meta_ra_of_asc_node": 81.7464,
        "meta_arg_of_pericenter": 93.8356,
        "meta_mean_anomaly": 263.8991,
        "meta_ephemeris_type": 0,
        "meta_classification_type": "U",
        "meta_norad_cat_id": 41194,
        "meta_element_set_no": 999,
        "meta_rev_at_epoch": 3671,
        "meta_bstar": 0,
        "meta_mean_motion_dot": -3.1e-06,
        "meta_mean_motion_ddot": 0,
        "tle_line1": "1 41194U 15083A   25352.68397319 -.00000310  00000+0  00000+0 0  9992",
        "tle_line2": "2 41194   0.1854  81.7464 0002931  93.8356 263.8991  1.00273625 36719"
      },
      "geometry": {
        "type": "Point",
        "coordinates": [
          -172.50341313317185,
          0.16846147977412532
        ]
      }
    },
    {
      "type": "Feature",
      "properties": {
        "norad_id": 41240,
        "name": "JASON-3",
        "group": "resource",
        "lat": 66.0276828152503,
        "lon": -125.50477655040586,
        "alt_km": 1309.1846187080291,
        "timestamp": "2025-12-18T23:35:48.704490+00:00",
        "meta_object_name": "JASON-3",
        "meta_object_id": "2016-002A",
        "meta_epoch": "2025-12-18T13:48:39.551328",
        "meta_mean_motion": 12.87626828,
        "meta_eccentricity": 0.00071978,
        "meta_inclination": 66.0397,
        "meta_ra_of_asc_node": 145.5551,
        "meta_arg_of_pericenter": 271.1398,
        "meta_mean_anomaly": 88.8796,
        "meta_ephemeris_type": 0,
        "meta_classification_type": "U",
        "meta_norad_cat_id": 41240,
        "meta_element_set_no": 999,
        "meta_rev_at_epoch": 46399,
        "meta_bstar": 5.1972699e-05,
        "meta_mean_motion_dot": -4.9e-07,
        "meta_mean_motion_ddot": 0,
        "tle_line1": "1 41240U 16002A   25352.57545777 -.00000049  00000+0  51973-4 0  9996",
        "tle_line2": "2 41240  66.0397 145.5551 0007197 271.1398  88.8796 12.87626828463992"
      },
      "geometry": {
        "type": "Point",
        "coordinates": [
          -125.50477655040586,
          66.0276828152503
        ]
      }
    },
    {
      "type": "Feature",
      "properties": {
        "norad_id": 41335,
        "name": "SENTINEL-3A",
        "group": "resource",
        "lat": 2.694229209917331,
        "lon": 57.498851016686245,
        "alt_km": 805.2295464660574,
        "timestamp": "2025-12-18T23:35:48.704501+00:00",
        "meta_object_name": "SENTINEL-3A",
        "meta_object_id": "2016-011A",
        "meta_epoch": "2025-12-18T15:10:06.663648",
        "meta_mean_motion": 14.26732921,
        "meta_eccentricity": 9.132e-05,
        "meta_inclination": 98.6308,
        "meta_ra_of_asc_node": 57.5621,
        "meta_arg_of_pericenter": 92.9961,
        "meta_mean_anomaly": 267.1324,
        "meta_ephemeris_type": 0,
        "meta_classification_type": "U",
        "meta_norad_cat_id": 41335,
        "meta_element_set_no": 999,
        "meta_rev_at_epoch": 51231,
        "meta_bstar": 6.289123e-05,
        "meta_mean_motion_dot": 1.08e-06,
        "meta_mean_motion_ddot": 0,
        "tle_line1": "1 41335U 16011A   25352.63202157  .00000108  00000+0  62891-4 0  9996",
        "tle_line2": "2 41335  98.6308  57.5621 0000913  92.9961 267.1324 14.26732921512311"
      },
      "geometry": {
        "type": "Point",
        "coordinates": [
          57.498851016686245,
          2.694229209917331
        ]
      }
    },
    {
      "type": "Feature",
      "properties": {
        "norad_id": 41556,
        "name": "ZIYUAN 3-02 (ZY 3-02)",
        "group": "resource",
        "lat": 75.39735349465893,
        "lon": 37.102802269914996,
        "alt_km": 501.4529844324861,
        "timestamp": "2025-12-18T23:35:48.704511+00:00",
        "meta_object_name": "ZIYUAN 3-02 (ZY 3-02)",
        "meta_object_id": "2016-033A",
        "meta_epoch": "2025-12-18T15:21:48.170304",
        "meta_mean_motion": 15.21137747,
        "meta_eccentricity": 0.00109261,
        "meta_inclination": 97.4044,
        "meta_ra_of_asc_node": 66.71,
        "meta_arg_of_pericenter": 224.1537,
        "meta_mean_anomaly": 135.8828,
        "meta_ephemeris_type": 0,
        "meta_classification_type": "U",
        "meta_norad_cat_id": 41556,
        "meta_element_set_no": 999,
        "meta_rev_at_epoch": 53053,
        "meta_bstar": 0.00026845304,
        "meta_mean_motion_dot": 5.917e-05,
        "meta_mean_motion_ddot": 0,
        "tle_line1": "1 41556U 16033A   25352.64014086  .00005917  00000+0  26845-3 0  9999",
        "tle_line2": "2 41556  97.4044  66.7100 0010926 224.1537 135.8828 15.21137747530532"
      },
      "geometry": {
        "type": "Point",
        "coordinates": [
          37.102802269914996,
          75.39735349465893
        ]
      }
    }
  ]
}